{
  "type": "FeatureCollection",
  "features": [
    {
      "type": "Feature",
      "properties": {},
      "geometry": {
        "type": "Polygon",
        "coordinates": [
          [
            [
              106.65581427828658,
              10.81154527572256
            ],
            [
              106.655746115808,
              10.811541986546763
            ],
            [
              106.65567860977578,
              10.811532150696145
            ],
            [
              106.65561241031422,
              10.811515862895966
            ],
            [
              106.65554815496424,
              10.811493280007678
            ],
            [
              106.65548646254348,
              10.811464619518233
            ],
            [
              106.65542792718645,
              10.811430157445507
            ],
            [
              106.65537311262278,
              10.811390225680034
            ],
            [
              106.655322546748,
              10.811345208788651
            ],
            [
              106.65527671653952,
              10.811295540310809
            ],
            [
              106.6552360633669,
              10.811241698583288
            ],
            [
              106.6552009787411,
              10.811184202133457
            ],
            [
              106.65517180054414,
              10.811123604685493
            ],
            [
              106.65514880977516,
              10.811060489827641
            ],
            [
              106.6551322278444,
              10.810995465391883
            ],
            [
              106.65512221444098,
              10.81092915760011
            ],
            [
              106.65511886599512,
              10.810862205033242
            ],
            [
              106.65512221474981,
              10.810795252481313
            ],
            [
              106.65513222845023,
              10.810728944733787
            ],
            [
              106.65514881065472,
              10.810663920369878
            ],
            [
              106.65517180166357,
              10.81060080560872
            ],
            [
              106.65520098005743,
              10.810540208278583
            ],
            [
              106.65523606482955,
              10.810482711963171
            ],
            [
              106.65527671809224,
              10.810428870381509
            ],
            [
              106.65532254833113,
              10.810379202055355
            ],
            [
              106.6553731141755,
              10.810334185315657
            ],
            [
              106.65542792864909,
              10.810294253696043
            ],
            [
              106.6554864638598,
              10.81025979175774
            ],
            [
              106.6555481560837,
              10.810231131386116
            ],
            [
              106.65561241119377,
              10.810208548594526
            ],
            [
              106.65567861038164,
              10.810192260866195
            ],
            [
              106.65574611611686,
              10.810182425059825
            ],
            [
              106.65581427828658,
              10.810179135898968
            ],
            [
              106.65588244045631,
              10.810182425059825
            ],
            [
              106.65594994619154,
              10.810192260866195
            ],
            [
              106.6560161453794,
              10.810208548594526
            ],
            [
              106.65608040048946,
              10.810231131386116
            ],
            [
              106.65614209271337,
              10.81025979175774
            ],
            [
              106.65620062792408,
              10.810294253696043
            ],
            [
              106.65625544239765,
              10.810334185315657
            ],
            [
              106.65630600824203,
              10.810379202055355
            ],
            [
              106.65635183848093,
              10.810428870381509
            ],
            [
              106.65639249174363,
              10.810482711963171
            ],
            [
              106.65642757651574,
              10.810540208278583
            ],
            [
              106.6564567549096,
              10.81060080560872
            ],
            [
              106.65647974591846,
              10.810663920369878
            ],
            [
              106.65649632812293,
              10.810728944733787
            ],
            [
              106.65650634182334,
              10.810795252481313
            ],
            [
              106.65650969057803,
              10.810862205033242
            ],
            [
              106.65650634213219,
              10.81092915760011
            ],
            [
              106.65649632872876,
              10.810995465391883
            ],
            [
              106.65647974679801,
              10.811060489827641
            ],
            [
              106.65645675602903,
              10.811123604685493
            ],
            [
              106.65642757783206,
              10.811184202133457
            ],
            [
              106.65639249320627,
              10.811241698583288
            ],
            [
              106.65635184003365,
              10.811295540310809
            ],
            [
              106.65630600982517,
              10.811345208788651
            ],
            [
              106.65625544395039,
              10.811390225680034
            ],
            [
              106.6562006293867,
              10.811430157445507
            ],
            [
              106.65614209402969,
              10.811464619518233
            ],
            [
              106.65608040160893,
              10.811493280007678
            ],
            [
              106.65601614625893,
              10.811515862895966
            ],
            [
              106.65594994679738,
              10.811532150696145
            ],
            [
              106.65588244076517,
              10.811541986546763
            ],
            [
              106.65581427828658,
              10.81154527572256
            ]
          ]
        ]
      }
    },
    {
      "type": "Feature",
      "properties": {},
      "geometry": {
        "coordinates": [
          [
            [
              106.65205978693223,
              10.80966270726421
            ],
            [
              106.65205978693223,
              10.808483278485326
            ],
            [
              106.65449763817048,
              10.808483278485326
            ],
            [
              106.65449763817048,
              10.80966270726421
            ],
            [
              106.65205978693223,
              10.80966270726421
            ]
          ]
        ],
        "type": "Polygon"
      }
    },
    {
      "type": "Feature",
      "properties": {},
      "geometry": {
        "coordinates": [
          [
            106.6571466198094,
            10.809132776134774
          ],
          [
            106.65595195141589,
            10.807875907731727
          ],
          [
            106.65805626577304,
            10.806803693575887
          ],
          [
            106.65881423306178,
            10.808405969425081
          ],
          [
            106.65716474167698,
            10.809132688902636
          ],
          [
            106.65721932043533,
            10.809853449925285
          ]
        ],
        "type": "LineString"
      }
    },
    {
      "type": "Feature",
      "properties": {},
      "geometry": {
        "coordinates": [
          [
            [
              106.6582178600217,
              10.812017853002061
            ],
            [
              106.65762355797852,
              10.810993307015124
            ],
            [
              106.65913357031303,
              10.80986749372893
            ],
            [
              106.66037068885066,
              10.810677603186846
            ],
            [
              106.66017663104043,
              10.81187489330722
            ],
            [
              106.6582178600217,
              10.812017853002061
            ]
          ]
        ],
        "type": "Polygon"
      }
    }
  ]
}